[Satellite]
VERSION=1.1
NAME=ECAMSAT
NICKNAME=ECAMSAT
TLE1=1 43019U 98067NG  20156.81046482  .00007732  00000-0  79213-4 0  9999
TLE2=2 43019  51.6410 355.6020 0003409   8.4619 351.6434 15.66078266230818
STATUS=0
